[{"OBJECT_NAME":"STARLINK-6176","OBJECT_ID":"2023-061Q","EPOCH":"2026-03-09T22:00:01.999584","MEAN_MOTION":15.11969207,"ECCENTRICITY":0.00020139,"INCLINATION":42.9997,"RA_OF_ASC_NODE":195.989,"ARG_OF_PERICENTER":263.5887,"MEAN_ANOMALY":20.4888,"EPHEMERIS_TYPE":0,"CLASSIFICATION_TYPE":"U","NORAD_CAT_ID":56388,"ELEMENT_SET_NO":999,"REV_AT_EPOCH":577,"BSTAR":0.004141035,"MEAN_MOTION_DOT":0.00072813,"MEAN_MOTION_DDOT":0},{"OBJECT_NAME":"TITAN 4B R\/B","OBJECT_ID":"2000-047B","EPOCH":"2026-03-09T21:29:16.286496","MEAN_MOTION":15.09565128,"ECCENTRICITY":0.00386241,"INCLINATION":67.9901,"RA_OF_ASC_NODE":39.932,"ARG_OF_PERICENTER":35.1583,"MEAN_ANOMALY":325.2103,"EPHEMERIS_TYPE":0,"CLASSIFICATION_TYPE":"U","NORAD_CAT_ID":26474,"ELEMENT_SET_NO":999,"REV_AT_EPOCH":39294,"BSTAR":0.00034805691,"MEAN_MOTION_DOT":5.567e-5,"MEAN_MOTION_DDOT":0}]
